[{"OBJECT_NAME":"ONEWEB-0186","OBJECT_ID":"2021-031V","EPOCH":"2025-11-27T17:01:40.042272","MEAN_MOTION":13.14502646,"ECCENTRICITY":0.00017026,"INCLINATION":87.8991,"RA_OF_ASC_NODE":329.8296,"ARG_OF_PERICENTER":85.4869,"MEAN_ANOMALY":274.6455,"EPHEMERIS_TYPE":0,"CLASSIFICATION_TYPE":"U","NORAD_CAT_ID":48229,"ELEMENT_SET_NO":999,"REV_AT_EPOCH":22191,"BSTAR":-3.8617652e-5,"MEAN_MOTION_DOT":-2.0e-8,"MEAN_MOTION_DDOT":0},{"OBJECT_NAME":"ONEWEB-0181","OBJECT_ID":"2021-031W","EPOCH":"2025-11-27T21:58:31.375488","MEAN_MOTION":13.14501613,"ECCENTRICITY":0.00017789,"INCLINATION":87.8975,"RA_OF_ASC_NODE":329.8453,"ARG_OF_PERICENTER":82.6944,"MEAN_ANOMALY":277.4388,"EPHEMERIS_TYPE":0,"CLASSIFICATION_TYPE":"U","NORAD_CAT_ID":48230,"ELEMENT_SET_NO":999,"REV_AT_EPOCH":22179,"BSTAR":0.00041492226,"MEAN_MOTION_DOT":1.67e-6,"MEAN_MOTION_DDOT":0},{"OBJECT_NAME":"ONEWEB-0188","OBJECT_ID":"2021-031X","EPOCH":"2025-11-27T17:24:30.018816","MEAN_MOTION":13.14503133,"ECCENTRICITY":0.00017163,"INCLINATION":87.8977,"RA_OF_ASC_NODE":329.8792,"ARG_OF_PERICENTER":89.5908,"MEAN_ANOMALY":270.5419,"EPHEMERIS_TYPE":0,"CLASSIFICATION_TYPE":"U","NORAD_CAT_ID":48231,"ELEMENT_SET_NO":999,"REV_AT_EPOCH":22167,"BSTAR":-0.00056910435,"MEAN_MOTION_DOT":-1.98e-6,"MEAN_MOTION_DDOT":0},{"OBJECT_NAME":"ONEWEB-0220","OBJECT_ID":"2021-031Y","EPOCH":"2025-11-27T22:00:49.109184","MEAN_MOTION":13.14502218,"ECCENTRICITY":0.00015478,"INCLINATION":87.899,"RA_OF_ASC_NODE":329.7877,"ARG_OF_PERICENTER":84.9592,"MEAN_ANOMALY":275.1714,"EPHEMERIS_TYPE":0,"CLASSIFICATION_TYPE":"U","NORAD_CAT_ID":48232,"ELEMENT_SET_NO":999,"REV_AT_EPOCH":22196,"BSTAR":0.00040325769,"MEAN_MOTION_DOT":1.62e-6,"MEAN_MOTION_DDOT":0},{"OBJECT_NAME":"ONEWEB-0165","OBJECT_ID":"2021-031Z","EPOCH":"2025-11-27T17:13:05.958048","MEAN_MOTION":13.14502218,"ECCENTRICITY":0.00019111,"INCLINATION":87.8975,"RA_OF_ASC_NODE":329.856,"ARG_OF_PERICENTER":78.9269,"MEAN_ANOMALY":281.2076,"EPHEMERIS_TYPE":0,"CLASSIFICATION_TYPE":"U","NORAD_CAT_ID":48233,"ELEMENT_SET_NO":999,"REV_AT_EPOCH":22189,"BSTAR":-0.00016652995,"MEAN_MOTION_DOT":-4.9e-7,"MEAN_MOTION_DDOT":0},{"OBJECT_NAME":"ONEWEB-0199","OBJECT_ID":"2021-031AA","EPOCH":"2025-11-27T16:50:14.987040","MEAN_MOTION":13.14503061,"ECCENTRICITY":0.00018848,"INCLINATION":87.8987,"RA_OF_ASC_NODE":329.8327,"ARG_OF_PERICENTER":92.4292,"MEAN_ANOMALY":267.7053,"EPHEMERIS_TYPE":0,"CLASSIFICATION_TYPE":"U","NORAD_CAT_ID":48234,"ELEMENT_SET_NO":999,"REV_AT_EPOCH":22179,"BSTAR":0.00018480479,"MEAN_MOTION_DOT":8.1e-7,"MEAN_MOTION_DDOT":0},{"OBJECT_NAME":"ONEWEB-0203","OBJECT_ID":"2021-031AB","EPOCH":"2025-11-27T12:57:19.365408","MEAN_MOTION":13.14502246,"ECCENTRICITY":0.00020364,"INCLINATION":87.8985,"RA_OF_ASC_NODE":329.8658,"ARG_OF_PERICENTER":86.5925,"MEAN_ANOMALY":273.5438,"EPHEMERIS_TYPE":0,"CLASSIFICATION_TYPE":"U","NORAD_CAT_ID":48235,"ELEMENT_SET_NO":999,"REV_AT_EPOCH":22178,"BSTAR":0.00042953126,"MEAN_MOTION_DOT":1.72e-6,"MEAN_MOTION_DDOT":0},{"OBJECT_NAME":"ONEWEB-0197","OBJECT_ID":"2021-031AC","EPOCH":"2025-11-27T21:28:38.701632","MEAN_MOTION":13.14502243,"ECCENTRICITY":0.00015398,"INCLINATION":87.8986,"RA_OF_ASC_NODE":329.793,"ARG_OF_PERICENTER":96.0776,"MEAN_ANOMALY":264.0529,"EPHEMERIS_TYPE":0,"CLASSIFICATION_TYPE":"U","NORAD_CAT_ID":48236,"ELEMENT_SET_NO":999,"REV_AT_EPOCH":22174,"BSTAR":-1.2621392e-5,"MEAN_MOTION_DOT":8.0e-8,"MEAN_MOTION_DDOT":0},{"OBJECT_NAME":"ONEWEB-0194","OBJECT_ID":"2021-031AD","EPOCH":"2025-11-27T17:19:55.570944","MEAN_MOTION":13.14501391,"ECCENTRICITY":0.00020154,"INCLINATION":87.8986,"RA_OF_ASC_NODE":329.8446,"ARG_OF_PERICENTER":92.3771,"MEAN_ANOMALY":267.759,"EPHEMERIS_TYPE":0,"CLASSIFICATION_TYPE":"U","NORAD_CAT_ID":48237,"ELEMENT_SET_NO":999,"REV_AT_EPOCH":22189,"BSTAR":-0.00051120875,"MEAN_MOTION_DOT":-1.77e-6,"MEAN_MOTION_DDOT":0},{"OBJECT_NAME":"ONEWEB-0193","OBJECT_ID":"2021-031AE","EPOCH":"2025-11-27T17:42:46.248192","MEAN_MOTION":13.14503684,"ECCENTRICITY":0.00021884,"INCLINATION":87.8983,"RA_OF_ASC_NODE":329.8367,"ARG_OF_PERICENTER":97.2017,"MEAN_ANOMALY":262.9361,"EPHEMERIS_TYPE":0,"CLASSIFICATION_TYPE":"U","NORAD_CAT_ID":48238,"ELEMENT_SET_NO":999,"REV_AT_EPOCH":22184,"BSTAR":7.2067717e-5,"MEAN_MOTION_DOT":4.0e-7,"MEAN_MOTION_DDOT":0},{"OBJECT_NAME":"ONEWEB-0191","OBJECT_ID":"2021-031AF","EPOCH":"2025-11-27T21:37:57.148896","MEAN_MOTION":13.14510746,"ECCENTRICITY":0.00019493,"INCLINATION":87.8994,"RA_OF_ASC_NODE":329.7926,"ARG_OF_PERICENTER":91.0059,"MEAN_ANOMALY":269.1294,"EPHEMERIS_TYPE":0,"CLASSIFICATION_TYPE":"U","NORAD_CAT_ID":48239,"ELEMENT_SET_NO":999,"REV_AT_EPOCH":22172,"BSTAR":-0.002421301,"MEAN_MOTION_DOT":-8.85e-6,"MEAN_MOTION_DDOT":0},{"OBJECT_NAME":"ONEWEB-0195","OBJECT_ID":"2021-031AG","EPOCH":"2025-11-27T17:25:37.018560","MEAN_MOTION":13.14504828,"ECCENTRICITY":0.00018596,"INCLINATION":87.9,"RA_OF_ASC_NODE":329.823,"ARG_OF_PERICENTER":75.7806,"MEAN_ANOMALY":284.353,"EPHEMERIS_TYPE":0,"CLASSIFICATION_TYPE":"U","NORAD_CAT_ID":48240,"ELEMENT_SET_NO":999,"REV_AT_EPOCH":22168,"BSTAR":-0.00037803238,"MEAN_MOTION_DOT":-1.27e-6,"MEAN_MOTION_DDOT":0},{"OBJECT_NAME":"ONEWEB-0201","OBJECT_ID":"2021-031AH","EPOCH":"2025-11-27T17:08:42.468288","MEAN_MOTION":13.14501557,"ECCENTRICITY":0.00014887,"INCLINATION":87.8975,"RA_OF_ASC_NODE":329.8681,"ARG_OF_PERICENTER":85.9709,"MEAN_ANOMALY":274.1591,"EPHEMERIS_TYPE":0,"CLASSIFICATION_TYPE":"U","NORAD_CAT_ID":48241,"ELEMENT_SET_NO":999,"REV_AT_EPOCH":22191,"BSTAR":-0.00033048222,"MEAN_MOTION_DOT":-1.1e-6,"MEAN_MOTION_DDOT":0},{"OBJECT_NAME":"ONEWEB-0207","OBJECT_ID":"2021-031AJ","EPOCH":"2025-11-27T16:39:57.840480","MEAN_MOTION":13.14501544,"ECCENTRICITY":0.00015446,"INCLINATION":87.8996,"RA_OF_ASC_NODE":329.8318,"ARG_OF_PERICENTER":88.9204,"MEAN_ANOMALY":271.2103,"EPHEMERIS_TYPE":0,"CLASSIFICATION_TYPE":"U","NORAD_CAT_ID":48242,"ELEMENT_SET_NO":999,"REV_AT_EPOCH":22182,"BSTAR":0.00042461173,"MEAN_MOTION_DOT":1.7e-6,"MEAN_MOTION_DDOT":0},{"OBJECT_NAME":"ONEWEB-0208","OBJECT_ID":"2021-031AK","EPOCH":"2025-11-27T21:42:32.826240","MEAN_MOTION":13.14502089,"ECCENTRICITY":0.00017797,"INCLINATION":87.8988,"RA_OF_ASC_NODE":329.8057,"ARG_OF_PERICENTER":82.1041,"MEAN_ANOMALY":278.029,"EPHEMERIS_TYPE":0,"CLASSIFICATION_TYPE":"U","NORAD_CAT_ID":48243,"ELEMENT_SET_NO":999,"REV_AT_EPOCH":22186,"BSTAR":0.00043670969,"MEAN_MOTION_DOT":1.75e-6,"MEAN_MOTION_DDOT":0},{"OBJECT_NAME":"ONEWEB-0200","OBJECT_ID":"2021-031AL","EPOCH":"2025-11-27T17:10:47.891712","MEAN_MOTION":13.14502769,"ECCENTRICITY":0.00017288,"INCLINATION":87.8984,"RA_OF_ASC_NODE":329.8332,"ARG_OF_PERICENTER":86.3532,"MEAN_ANOMALY":273.7795,"EPHEMERIS_TYPE":0,"CLASSIFICATION_TYPE":"U","NORAD_CAT_ID":48244,"ELEMENT_SET_NO":999,"REV_AT_EPOCH":22176,"BSTAR":-0.00040219472,"MEAN_MOTION_DOT":-1.36e-6,"MEAN_MOTION_DDOT":0}]
