ONEWEB-0186             
1 48229U 21031V   25331.70949123 -.00000002  00000+0 -38618-4 0  9994
2 48229  87.8991 329.8296 0001702  85.4869 274.6455 13.14502646221918
ONEWEB-0181             
1 48230U 21031W   25331.91564092  .00000167  00000+0  41492-3 0  9990
2 48230  87.8975 329.8453 0001778  82.6944 277.4388 13.14501613221798
ONEWEB-0188             
1 48231U 21031X   25331.72534744 -.00000198  00000+0 -56910-3 0  9998
2 48231  87.8977 329.8792 0001716  89.5908 270.5419 13.14503133221670
ONEWEB-0220             
1 48232U 21031Y   25331.91723506  .00000162  00000+0  40326-3 0  9999
2 48232  87.8990 329.7877 0001547  84.9592 275.1714 13.14502218221963
ONEWEB-0165             
1 48233U 21031Z   25331.71743007 -.00000049  00000+0 -16653-3 0  9998
2 48233  87.8975 329.8560 0001911  78.9269 281.2076 13.14502218221897
ONEWEB-0199             
1 48234U 21031AA  25331.70156235  .00000081  00000+0  18480-3 0  9993
2 48234  87.8987 329.8327 0001884  92.4292 267.7053 13.14503061221798
ONEWEB-0203             
1 48235U 21031AB  25331.53980747  .00000172  00000+0  42953-3 0  9991
2 48235  87.8985 329.8658 0002036  86.5925 273.5438 13.14502246221786
ONEWEB-0197             
1 48236U 21031AC  25331.89489238  .00000008  00000+0 -12621-4 0  9999
2 48236  87.8986 329.7930 0001539  96.0776 264.0529 13.14502243221746
ONEWEB-0194             
1 48237U 21031AD  25331.72217096 -.00000177  00000+0 -51121-3 0  9998
2 48237  87.8986 329.8446 0002015  92.3771 267.7590 13.14501391221891
ONEWEB-0193             
1 48238U 21031AE  25331.73803528  .00000040  00000+0  72068-4 0  9992
2 48238  87.8983 329.8367 0002188  97.2017 262.9361 13.14503684221844
ONEWEB-0191             
1 48239U 21031AF  25331.90135589 -.00000885  00000+0 -24213-2 0  9993
2 48239  87.8994 329.7926 0001949  91.0059 269.1294 13.14510746221727
ONEWEB-0195             
1 48240U 21031AG  25331.72612290 -.00000127  00000+0 -37803-3 0  9993
2 48240  87.9000 329.8230 0001859  75.7806 284.3530 13.14504828221687
ONEWEB-0201             
1 48241U 21031AH  25331.71438042 -.00000110  00000+0 -33048-3 0  9993
2 48241  87.8975 329.8681 0001488  85.9709 274.1591 13.14501557221917
ONEWEB-0207             
1 48242U 21031AJ  25331.69441945  .00000170  00000+0  42461-3 0  9990
2 48242  87.8996 329.8318 0001544  88.9204 271.2103 13.14501544221827
ONEWEB-0208             
1 48243U 21031AK  25331.90454660  .00000175  00000+0  43671-3 0  9992
2 48243  87.8988 329.8057 0001779  82.1041 278.0290 13.14502089221865
ONEWEB-0200             
1 48244U 21031AL  25331.71583208 -.00000136  00000+0 -40219-3 0  9997
2 48244  87.8984 329.8332 0001728  86.3532 273.7795 13.14502769221769
